{
  "type": "FeatureCollection",
  "features": [
    {
      "type": "Feature",
      "geometry": { "type": "Point", "coordinates": [100.58, 13.54] },
      "properties": {
        "id": "river-01",
        "name_en": "Chao Phraya",
        "name_th": "เจ้าพระยา",
        "populationUpstream": "12M+",
        "majorCity_en": "Bangkok",
        "majorCity_th": "กรุงเทพฯ"
      }
    },
    {
      "type": "Feature",
      "geometry": { "type": "Point", "coordinates": [100.98, 13.45] },
      "properties": {
        "id": "river-02",
        "name_en": "Bang Pakong",
        "name_th": "บางปะกง",
        "populationUpstream": "2M+",
        "majorCity_en": "Chachoengsao",
        "majorCity_th": "ฉะเชิงเทรา"
      }
    },
    {
      "type": "Feature",
      "geometry": { "type": "Point", "coordinates": [99.32, 9.16] },
      "properties": {
        "id": "river-03",
        "name_en": "Tapi",
        "name_th": "ตาปี",
        "populationUpstream": "500K+",
        "majorCity_en": "Surat Thani",
        "majorCity_th": "สุราษฎร์ธานี"
      }
    },
    {
      "type": "Feature",
      "geometry": { "type": "Point", "coordinates": [100.18, 8.37] },
      "properties": {
        "id": "river-04",
        "name_en": "Pak Phanang",
        "name_th": "ปากพนัง",
        "populationUpstream": "300K+",
        "majorCity_en": "Nakhon Si Thammarat",
        "majorCity_th": "นครศรีธรรมราช"
      }
    },
    {
      "type": "Feature",
      "geometry": { "type": "Point", "coordinates": [100.58, 7.20] },
      "properties": {
        "id": "river-05",
        "name_en": "Songkhla Lake Outlet",
        "name_th": "ทางออกทะเลสาบสงขลา",
        "populationUpstream": "1.5M+",
        "majorCity_en": "Hat Yai",
        "majorCity_th": "หาดใหญ่"
      }
    },
    {
      "type": "Feature",
      "geometry": { "type": "Point", "coordinates": [102.01, 12.48] },
      "properties": {
        "id": "river-06",
        "name_en": "Chanthaburi",
        "name_th": "จันทบุรี",
        "populationUpstream": "200K+",
        "majorCity_en": "Chanthaburi",
        "majorCity_th": "จันทบุรี"
      }
    },
    {
      "type": "Feature",
      "geometry": { "type": "Point", "coordinates": [98.62, 9.98] },
      "properties": {
        "id": "river-07",
        "name_en": "Kra Buri",
        "name_th": "กระบุรี",
        "populationUpstream": "150K+",
        "majorCity_en": "Ranong",
        "majorCity_th": "ระนอง"
      }
    },
    {
      "type": "Feature",
      "geometry": { "type": "Point", "coordinates": [99.30, 7.42] },
      "properties": {
        "id": "river-08",
        "name_en": "Trang",
        "name_th": "ตรัง",
        "populationUpstream": "250K+",
        "majorCity_en": "Trang",
        "majorCity_th": "ตรัง"
      }
    },
    {
      "type": "Feature",
      "geometry": { "type": "Point", "coordinates": [99.18, 10.48] },
      "properties": {
        "id": "river-09",
        "name_en": "Chumphon",
        "name_th": "ชุมพร",
        "populationUpstream": "200K+",
        "majorCity_en": "Chumphon",
        "majorCity_th": "ชุมพร"
      }
    }
  ]
}
